NORAD_CAT_ID,OBJECT_NAME,OBJECT_TYPE,EPOCH,MEAN_MOTION,ECCENTRICITY,INCLINATION,RA_OF_ASC_NODE,ARG_OF_PERICENTER,MEAN_ANOMALY,BSTAR,MEAN_MOTION_DOT,MEAN_MOTION_DDOT,TLE_LINE0,TLE_LINE1,TLE_LINE2,SEMIMAJOR_AXIS,PERIOD,APOGEE,PERIGEE,DECAYED
53845.0,STARLINK-4753,PAYLOAD,2023-02-26 19:58:48,15.08857989,0.0001007,53.2158,223.024,92.5797,267.531,0.00052451,8.074e-05,0.0,0 STARLINK-4753,1 53845U 22114AD  23057.83250641  .00008074  00000-0  52451-3 0  9990,2 53845  53.2158 223.0240 0001007  92.5797 267.5310 15.08857989 25338,6917.825,95.436,540.387,538.994,0.0
53845.0,STARLINK-4753,PAYLOAD,2023-02-27 05:31:07,15.08846039,0.000117,53.2151,221.2398,104.3003,255.812,0.00019633,2.839e-05,0.0,0 STARLINK-4753,1 53845U 22114AD  23058.22994874  .00002839  00000-0  19633-3 0  9995,2 53845  53.2151 221.2398 0001170 104.3003 255.8120 15.08846039 25397,6917.862,95.437,540.536,538.918,0.0
53845.0,STARLINK-4753,PAYLOAD,2023-02-27 10:17:17,15.08842602,0.0001049,53.2155,220.348,92.8463,267.2649,0.00013428,1.85e-05,0.0,0 STARLINK-4753,1 53845U 22114AD  23058.42867117  .00001850  00000-0  13428-3 0  9994,2 53845  53.2155 220.3480 0001049  92.8463 267.2649 15.08842602 25967,6917.872,95.437,540.463,539.012,0.0
53845.0,STARLINK-4753,PAYLOAD,2023-02-27 15:03:26,15.08855116,9.97e-05,53.2151,219.4557,94.2818,265.8288,0.00038914,5.913e-05,0.0,0 STARLINK-4753,1 53845U 22114AD  23058.62738622  .00005913  00000-0  38914-3 0  9995,2 53845  53.2151 219.4557 0000997  94.2818 265.8288 15.08855116 25998,6917.834,95.437,540.389,539.009,0.0
53845.0,STARLINK-4753,PAYLOAD,2023-02-28 03:46:31,15.08841999,0.0001417,53.2156,217.0771,76.1076,284.0073,0.00041325,6.295e-05,0.0,0 STARLINK-4753,1 53845U 22114AD  23059.15731011  .00006295  00000-0  41325-3 0  9993,2 53845  53.2156 217.0771 0001417  76.1076 284.0073 15.08841999 25537,6917.874,95.437,540.72,538.759,0.0
53845.0,STARLINK-4753,PAYLOAD,2023-02-28 11:43:27,15.08821802,0.0001081,53.2165,215.5916,78.2796,281.8317,-0.00032158,-5.399e-05,0.0,0 STARLINK-4753,1 53845U 22114AD  23059.48851559 -.00005399  00000-0 -32158-3 0  9999,2 53845  53.2165 215.5916 0001081  78.2796 281.8317 15.08821802 26123,6917.936,95.439,540.549,539.053,0.0
53845.0,STARLINK-4753,PAYLOAD,2023-02-28 16:29:37,15.08829522,0.0001067,53.2159,214.6983,83.368,276.7433,-7.7618e-05,-1.522e-05,0.0,0 STARLINK-4753,1 53845U 22114AD  23059.68723621 -.00001522  00000-0 -77618-4 0  9994,2 53845  53.2159 214.6983 0001067  83.3680 276.7433 15.08829522 25615,6917.912,95.438,540.516,539.039,0.0
53845.0,STARLINK-4753,PAYLOAD,2023-02-28 18:05:00,15.0883209,0.0001016,53.2155,214.4001,84.4728,275.638,1.7653e-05,-7e-08,0.0,0 STARLINK-4753,1 53845U 22114AD  23059.75347588 -.00000007  00000-0  17653-4 0  9995,2 53845  53.2155 214.4001 0001016  84.4728 275.6380 15.08832090 26163,6917.905,95.438,540.472,539.067,0.0
53845.0,STARLINK-4753,PAYLOAD,2023-03-01 16:20:24,15.08841032,0.0001124,53.2147,210.2369,71.9589,288.1525,0.00079585,0.00012401,0.0,0 STARLINK-4753,1 53845U 22114AD  23060.68084445  .00012401  00000-0  79585-3 0  9990,2 53845  53.2147 210.2369 0001124  71.9589 288.1525 15.08841032 26303,6917.877,95.437,540.52,538.965,0.0
53845.0,STARLINK-4753,PAYLOAD,2023-03-02 03:28:07,15.0884125,0.0001988,53.2143,208.1563,73.2207,286.9003,0.0005451,8.398e-05,0.0,0 STARLINK-4753,1 53845U 22114AD  23061.14452665  .00008398  00000-0  54510-3 0  9996,2 53845  53.2143 208.1563 0001988  73.2207 286.9003 15.08841250 25837,6917.877,95.437,541.117,538.366,0.0
53845.0,STARLINK-4753,PAYLOAD,2023-03-02 19:21:57,15.08867865,0.0001308,53.2157,205.1826,72.2159,287.8976,0.0011671,0.00018349,0.0,0 STARLINK-4753,1 53845U 22114AD  23061.80691806  .00018349  00000-0  11671-2 0  9998,2 53845  53.2157 205.1826 0001308  72.2159 287.8976 15.08867865 26472,6917.795,95.436,540.565,538.755,0.0
53845.0,STARLINK-4753,PAYLOAD,2023-03-03 09:40:25,15.08865751,0.0001167,53.2157,202.5057,62.2576,297.8534,0.0015891,0.00025111,0.0,0 STARLINK-4753,1 53845U 22114AD  23062.40307763  .00025111  00000-0  15891-2 0  9994,2 53845  53.2157 202.5057 0001167  62.2576 297.8534 15.08865751 26028,6917.802,95.436,540.474,538.859,0.0
53845.0,STARLINK-4753,PAYLOAD,2023-03-04 01:34:16,15.08834665,0.0001466,53.2163,199.5325,87.5596,272.5564,-0.00069188,-0.00011281,0.0,0 STARLINK-4753,1 53845U 22114AD  23063.06547355 -.00011281  00000-0 -69188-3 0  9994,2 53845  53.2163 199.5325 0001466  87.5596 272.5564 15.08834665 26126,6917.897,95.438,540.776,538.748,0.0
53845.0,STARLINK-4753,PAYLOAD,2023-03-04 09:31:12,15.08820318,6.88e-05,53.2165,198.0467,126.3315,233.7741,0.001654,0.00026119,0.0,0 STARLINK-4753,1 53845U 22114AD  23063.39667547  .00026119  00000-0  16540-2 0  9993,2 53845  53.2165 198.0467 0000688 126.3315 233.7741 15.08820318 26716,6917.941,95.439,540.282,539.33,0.0
53845.0,STARLINK-4753,PAYLOAD,2023-03-04 12:41:59,15.08842238,0.0001213,53.2158,197.4511,92.2646,267.8485,0.0027721,0.00044109,0.0,0 STARLINK-4753,1 53845U 22114AD  23063.52915653  .00044109  00000-0  27721-2 0  9994,2 53845  53.2158 197.4511 0001213  92.2646 267.8485 15.08842238 26194,6917.874,95.437,540.578,538.899,0.0
53845.0,STARLINK-4753,PAYLOAD,2023-03-04 20:38:54,15.08876114,0.0001252,53.2163,195.9642,88.3393,271.7742,0.0029115,0.000464,0.0,0 STARLINK-4753,1 53845U 22114AD  23063.86035147  .00046400  00000-0  29115-2 0  9997,2 53845  53.2163 195.9642 0001252  88.3393 271.7742 15.08876114 26781,6917.77,95.435,540.501,538.769,0.0
53845.0,STARLINK-4753,PAYLOAD,2023-03-05 01:25:04,15.08829206,0.0001722,53.2161,195.0708,97.788,262.3308,-0.00025906,-4.407e-05,0.0,0 STARLINK-4753,1 53845U 22114AD  23064.05907804 -.00004407  00000-0 -25906-3 0  9995,2 53845  53.2161 195.0708 0001722  97.7880 262.3308 15.08829206 26278,6917.913,95.438,540.97,538.587,0.0
53845.0,STARLINK-4753,PAYLOAD,2023-03-06 01:15:51,15.08882634,0.000239,53.217,190.611,77.5112,282.6148,0.0028182,0.00044903,0.0,0 STARLINK-4753,1 53845U 22114AD  23065.05268126  .00044903  00000-0  28182-2 0  9994,2 53845  53.2170 190.6110 0002390  77.5112 282.6148 15.08882634 26420,6917.75,95.435,541.268,537.962,0.0
53845.0,STARLINK-4753,PAYLOAD,2023-03-06 17:09:42,15.08867172,0.0001819,53.2164,187.6377,80.7618,279.358,0.0021184,0.00033613,0.0,0 STARLINK-4753,1 53845U 22114AD  23065.71507457  .00033613  00000-0  21184-2 0  9991,2 53845  53.2164 187.6377 0001819  80.7618 279.3580 15.08867172 26520,6917.797,95.436,540.921,538.404,0.0
53845.0,STARLINK-4753,PAYLOAD,2023-03-06 20:20:28,15.08895636,0.0001329,53.2162,187.0427,80.098,280.0162,0.003422,0.00054679,0.0,0 STARLINK-4753,1 53845U 22114AD  23065.84754804  .00054679  00000-0  34220-2 0  9995,2 53845  53.2162 187.0427 0001329  80.0980 280.0162 15.08895636 27082,6917.71,95.434,540.495,538.656,0.0
53845.0,STARLINK-4753,PAYLOAD,2023-03-07 01:06:37,15.08815682,6.69e-05,53.2165,186.1526,159.528,200.5739,0.00071889,0.00011164,0.0,0 STARLINK-4753,1 53845U 22114AD  23066.04627127  .00011164  00000-0  71889-3 0  9990,2 53845  53.2165 186.1526 0000669 159.5280 200.5739 15.08815682 26579,6917.955,95.439,540.283,539.357,0.0
53845.0,STARLINK-4753,PAYLOAD,2023-03-07 15:25:06,15.08865735,0.000143,53.2156,183.4752,102.6657,257.4495,0.0035152,0.00056142,0.0,0 STARLINK-4753,1 53845U 22114AD  23066.64243884  .00056142  00000-0  35152-2 0  9997,2 53845  53.2156 183.4752 0001430 102.6657 257.4495 15.08865735 26668,6917.802,95.436,540.656,538.677,0.0
53845.0,STARLINK-4753,PAYLOAD,2023-03-08 00:57:26,15.08842152,0.0002735,53.2147,181.6925,78.4687,281.6612,0.0038212,0.00061059,0.0,0 STARLINK-4753,1 53845U 22114AD  23067.03988952  .00061059  00000-0  38212-2 0  9996,2 53845  53.2147 181.6925 0002735  78.4687 281.6612 15.08842152 26727,6917.874,95.437,541.631,537.847,0.0
53845.0,STARLINK-4753,PAYLOAD,2023-03-08 07:18:58,15.08834124,0.000159,53.214,180.5034,79.817,280.3001,0.0036572,0.0005839,0.0,0 STARLINK-4753,1 53845U 22114AD  23067.30484691  .00058390  00000-0  36572-2 0  9998,2 53845  53.2140 180.5034 0001590  79.8170 280.3001 15.08834124 26761,6917.898,95.438,540.863,538.663,0.0
53845.0,STARLINK-4753,PAYLOAD,2023-03-08 16:51:17,15.08877699,0.0001493,53.2158,178.7193,76.7916,283.3243,0.0045663,0.00073216,0.0,0 STARLINK-4753,1 53845U 22114AD  23067.70228418  .00073216  00000-0  45663-2 0  9990,2 53845  53.2158 178.7193 0001493  76.7916 283.3243 15.08877699 27363,6917.765,95.435,540.663,538.597,0.0
53845.0,STARLINK-4753,PAYLOAD,2023-03-09 07:09:45,15.08881808,0.0002825,53.2154,176.042,93.0153,267.1162,0.0039866,0.00063809,0.0,0 STARLINK-4753,1 53845U 22114AD  23068.29844477  .00063809  00000-0  39866-2 0  9999,2 53845  53.2154 176.0420 0002825  93.0153 267.1162 15.08881808 26915,6917.753,95.435,541.572,537.663,0.0
53845.0,STARLINK-4753,PAYLOAD,2023-03-09 11:55:54,15.08877442,0.0001549,53.2157,175.1505,100.9555,259.1611,0.0024971,0.00039719,0.0,0 STARLINK-4753,1 53845U 22114AD  23068.49715856  .00039719  00000-0  24971-2 0  9993,2 53845  53.2157 175.1505 0001549 100.9555 259.1611 15.08877442 26940,6917.766,95.435,540.703,538.559,0.0
53845.0,STARLINK-4753,PAYLOAD,2023-03-10 10:11:18,15.08849983,3.25e-05,53.2157,170.9878,46.9601,313.1419,0.0019077,0.00030212,0.0,0 STARLINK-4753,1 53845U 22114AD  23069.42451483  .00030212  00000-0  19077-2 0  9990,2 53845  53.2157 170.9878 0000325  46.9601 313.1419 15.08849983 27080,6917.85,95.437,539.94,539.49,0.0
53845.0,STARLINK-4753,PAYLOAD,2023-03-10 16:32:50,15.08866684,6.23e-05,53.2168,169.796,103.9366,256.1695,0.0013738,0.0002166,0.0,0 STARLINK-4753,1 53845U 22114AD  23069.68947114  .00021660  00000-0  13738-2 0  9994,2 53845  53.2168 169.7960 0000623 103.9366 256.1695 15.08866684 27666,6917.799,95.436,540.095,539.233,0.0
53845.0,STARLINK-4753,PAYLOAD,2023-03-11 05:15:56,15.08821682,9.04e-05,53.2167,167.4197,145.6637,214.4413,0.00086458,0.00013492,0.0,0 STARLINK-4753,1 53845U 22114AD  23070.21940298  .00013492  00000-0  86458-3 0  9995,2 53845  53.2167 167.4197 0000904 145.6637 214.4413 15.08821682 27202,6917.936,95.439,540.427,539.176,0.0
